start=new Date('2023-03-26T00:00:00.000Z').valueOf();
sats=[{"REF_FRAME":"TEME","INCLINATION":"53.0550","RA_OF_ASC_NODE":"333.8678","TLE_LINE1":"1 45419U 20019BM  23084.92562856  .00017491  00000-0  11917-2 0  9998","GP_ID":"228868309","MEAN_MOTION_DOT":"0.00017491","OBJECT_TYPE":"PAYLOAD","APOAPSIS":"548.041","ECCENTRICITY":"0.00009910","PERIOD":"95.595","EPOCH":"2023-03-25T22:12:54.307584","ARG_OF_PERICENTER":"58.5001","DECAY_DATE":null,"OBJECT_ID":"2020-019BM","ELEMENT_SET_NO":"999","TLE_LINE2":"2 45419  53.0550 333.8678 0000991  58.5001 301.6085 15.06353889166722","LAUNCH_DATE":"2020-03-18","MEAN_MOTION_DDOT":"0.0000000000000","MEAN_ANOMALY":"301.6085","OBJECT_NAME":"STARLINK-1308","EPHEMERIS_TYPE":"0","COUNTRY_CODE":"US","SEMIMAJOR_AXIS":"6925.490","NORAD_CAT_ID":"45419","CENTER_NAME":"EARTH","MEAN_MOTION":"15.06353889","CLASSIFICATION_TYPE":"U","PERIAPSIS":"546.669","FILE":"3871104","RCS_SIZE":"LARGE","BSTAR":"0.00119170000000","MEAN_ELEMENT_THEORY":"SGP4","TIME_SYSTEM":"UTC","SITE":"AFETR","REV_AT_EPOCH":"16672"},{"MEAN_MOTION_DDOT":"0.0000000000000","TLE_LINE2":"2 45531  53.0519 274.0115 0000824  49.6036 310.5025 15.06373090162341","LAUNCH_DATE":"2020-04-22","OBJECT_ID":"2020-025A","ELEMENT_SET_NO":"999","ARG_OF_PERICENTER":"49.6036","EPOCH":"2023-03-25T21:27:48.272544","DECAY_DATE":null,"APOAPSIS":"547.867","ECCENTRICITY":"0.00008240","PERIOD":"95.594","MEAN_MOTION_DOT":"0.00044864","OBJECT_TYPE":"PAYLOAD","RA_OF_ASC_NODE":"274.0115","INCLINATION":"53.0519","TLE_LINE1":"1 45531U 20025A   23084.89430871  .00044864  00000-0  30139-2 0  9998","GP_ID":"228867820","REF_FRAME":"TEME","SITE":"AFETR","REV_AT_EPOCH":"16234","BSTAR":"0.00301390000000","MEAN_ELEMENT_THEORY":"SGP4","TIME_SYSTEM":"UTC","MEAN_MOTION":"15.06373090","CLASSIFICATION_TYPE":"U","PERIAPSIS":"546.725","RCS_SIZE":"LARGE","FILE":"3871104","CENTER_NAME":"EARTH","SEMIMAJOR_AXIS":"6925.431","NORAD_CAT_ID":"45531","COUNTRY_CODE":"US","MEAN_ANOMALY":"310.5025","OBJECT_NAME":"STARLINK-1329","EPHEMERIS_TYPE":"0"},{"COUNTRY_CODE":"US","SEMIMAJOR_AXIS":"6925.497","NORAD_CAT_ID":"45532","EPHEMERIS_TYPE":"0","OBJECT_NAME":"STARLINK-1338","MEAN_ANOMALY":"329.4591","MEAN_ELEMENT_THEORY":"SGP4","TIME_SYSTEM":"UTC","BSTAR":"0.00108510000000","REV_AT_EPOCH":"16175","SITE":"AFETR","CENTER_NAME":"EARTH","RCS_SIZE":"LARGE","FILE":"3870828","PERIAPSIS":"546.887","MEAN_MOTION":"15.06351458","CLASSIFICATION_TYPE":"U","OBJECT_TYPE":"PAYLOAD","MEAN_MOTION_DOT":"0.00015897","PERIOD":"95.595","ECCENTRICITY":"0.00006870","APOAPSIS":"547.838","REF_FRAME":"TEME","GP_ID":"228842145","TLE_LINE1":"1 45532U 20025B   23084.83901212  .00015897  00000-0  10851-2 0  9998","INCLINATION":"53.0520","RA_OF_ASC_NODE":"274.2536","LAUNCH_DATE":"2020-04-22","TLE_LINE2":"2 45532  53.0520 274.2536 0000687  30.6438 329.4591 15.06351458161751","MEAN_MOTION_DDOT":"0.0000000000000","DECAY_DATE":null,"ARG_OF_PERICENTER":"30.6438","EPOCH":"2023-03-25T20:08:10.647168","ELEMENT_SET_NO":"999","OBJECT_ID":"2020-025B"},{"OBJECT_ID":"2020-025D","ELEMENT_SET_NO":"999","ARG_OF_PERICENTER":"100.2174","EPOCH":"2023-03-25T18:48:33.207552","DECAY_DATE":null,"MEAN_MOTION_DDOT":"0.0000000000000","TLE_LINE2":"2 45534  53.0525 274.5036 0000999 100.2174 259.8928 15.06379961162326","LAUNCH_DATE":"2020-04-22","TLE_LINE1":"1 45534U 20025D   23084.78371768  .00021627  00000-0  14671-2 0  9993","INCLINATION":"53.0525","RA_OF_ASC_NODE":"274.5036","GP_ID":"228868821","REF_FRAME":"TEME","APOAPSIS":"547.967","ECCENTRICITY":"0.00009990","PERIOD":"95.593","OBJECT_TYPE":"PAYLOAD","MEAN_MOTION_DOT":"0.00021627","CLASSIFICATION_TYPE":"U","MEAN_MOTION":"15.06379961","RCS_SIZE":"LARGE","FILE":"3871104","PERIAPSIS":"546.583","CENTER_NAME":"EARTH","SITE":"AFETR","REV_AT_EPOCH":"16232","BSTAR":"0.00146710000000","TIME_SYSTEM":"UTC","MEAN_ELEMENT_THEORY":"SGP4","OBJECT_NAME":"STARLINK-1341","MEAN_ANOMALY":"259.8928","EPHEMERIS_TYPE":"0","SEMIMAJOR_AXIS":"6925.410","NORAD_CAT_ID":"45534","COUNTRY_CODE":"US"},{"REF_FRAME":"TEME","GP_ID":"228868571","TLE_LINE1":"1 45535U 20025E   23084.86851374  .00017440  00000-0  11886-2 0  9992","RA_OF_ASC_NODE":"274.1260","INCLINATION":"53.0512","OBJECT_TYPE":"PAYLOAD","MEAN_MOTION_DOT":"0.00017440","ECCENTRICITY":"0.00009980","PERIOD":"95.596","APOAPSIS":"548.075","DECAY_DATE":null,"ARG_OF_PERICENTER":"87.2961","EPOCH":"2023-03-25T20:50:39.587136","ELEMENT_SET_NO":"999","OBJECT_ID":"2020-025E","LAUNCH_DATE":"2020-04-22","TLE_LINE2":"2 45535  53.0512 274.1260 0000998  87.2961 272.8142 15.06344375162341","MEAN_MOTION_DDOT":"0.0000000000000","EPHEMERIS_TYPE":"0","OBJECT_NAME":"STARLINK-1350","MEAN_ANOMALY":"272.8142","COUNTRY_CODE":"US","NORAD_CAT_ID":"45535","SEMIMAJOR_AXIS":"6925.519","CENTER_NAME":"EARTH","RCS_SIZE":"LARGE","FILE":"3871104","PERIAPSIS":"546.693","CLASSIFICATION_TYPE":"U","MEAN_MOTION":"15.06344375","TIME_SYSTEM":"UTC","MEAN_ELEMENT_THEORY":"SGP4","BSTAR":"0.00118860000000","SITE":"AFETR","REV_AT_EPOCH":"16234"},{"APOAPSIS":"548.159","ECCENTRICITY":"0.00011170","PERIOD":"95.596","MEAN_MOTION_DOT":"0.00020986","OBJECT_TYPE":"PAYLOAD","RA_OF_ASC_NODE":"274.4028","INCLINATION":"53.0532","TLE_LINE1":"1 45536U 20025F   23084.80584348  .00020986  00000-0  14257-2 0  9995","GP_ID":"228867321","REF_FRAME":"TEME","MEAN_MOTION_DDOT":"0.0000000000000","TLE_LINE2":"2 45536  53.0532 274.4028 0001117 102.8971 257.2143 15.06343884162328","LAUNCH_DATE":"2020-04-22","OBJECT_ID":"2020-025F","ELEMENT_SET_NO":"999","ARG_OF_PERICENTER":"102.8971","EPOCH":"2023-03-25T19:20:24.876672","DECAY_DATE":null,"NORAD_CAT_ID":"45536","SEMIMAJOR_AXIS":"6925.521","COUNTRY_CODE":"US","MEAN_ANOMALY":"257.2143","OBJECT_NAME":"STARLINK-1352","EPHEMERIS_TYPE":"0","REV_AT_EPOCH":"16232","SITE":"AFETR","BSTAR":"0.00142570000000","MEAN_ELEMENT_THEORY":"SGP4","TIME_SYSTEM":"UTC","CLASSIFICATION_TYPE":"U","MEAN_MOTION":"15.06343884","PERIAPSIS":"546.612","RCS_SIZE":"LARGE","FILE":"3871104","CENTER_NAME":"EARTH"},{"TLE_LINE2":"2 45538  53.0523 274.2895 0001204  98.5833 261.5293 15.06377722162338","LAUNCH_DATE":"2020-04-22","MEAN_MOTION_DDOT":"0.0000000000000","EPOCH":"2023-03-25T19:57:33.883488","ARG_OF_PERICENTER":"98.5833","DECAY_DATE":null,"OBJECT_ID":"2020-025H","ELEMENT_SET_NO":"999","MEAN_MOTION_DOT":"0.00020340","OBJECT_TYPE":"PAYLOAD","APOAPSIS":"548.116","PERIOD":"95.594","ECCENTRICITY":"0.00012040","REF_FRAME":"TEME","RA_OF_ASC_NODE":"274.2895","INCLINATION":"53.0523","TLE_LINE1":"1 45538U 20025H   23084.83164217  .00020340  00000-0  13813-2 0  9990","GP_ID":"228867570","BSTAR":"0.00138130000000","TIME_SYSTEM":"UTC","MEAN_ELEMENT_THEORY":"SGP4","SITE":"AFETR","REV_AT_EPOCH":"16233","CENTER_NAME":"EARTH","MEAN_MOTION":"15.06377722","CLASSIFICATION_TYPE":"U","PERIAPSIS":"546.448","FILE":"3871104","RCS_SIZE":"LARGE","COUNTRY_CODE":"US","NORAD_CAT_ID":"45538","SEMIMAJOR_AXIS":"6925.417","MEAN_ANOMALY":"261.5293","OBJECT_NAME":"STARLINK-1362","EPHEMERIS_TYPE":"0"},{"BSTAR":"-0.00018388000000","MEAN_ELEMENT_THEORY":"SGP4","TIME_SYSTEM":"UTC","REV_AT_EPOCH":"16232","SITE":"AFETR","CENTER_NAME":"EARTH","MEAN_MOTION":"15.06365224","CLASSIFICATION_TYPE":"U","RCS_SIZE":"LARGE","FILE":"3871104","PERIAPSIS":"546.687","COUNTRY_CODE":"US","NORAD_CAT_ID":"45540","SEMIMAJOR_AXIS":"6925.455","OBJECT_NAME":"STARLINK-1368","MEAN_ANOMALY":"299.2902","EPHEMERIS_TYPE":"0","TLE_LINE2":"2 45540  53.0524 274.3917 0000914  60.8178 299.2902 15.06365224162327","LAUNCH_DATE":"2020-04-22","MEAN_MOTION_DDOT":"0.0000000000000","EPOCH":"2023-03-25T19:25:45.083712","ARG_OF_PERICENTER":"60.8178","DECAY_DATE":null,"OBJECT_ID":"2020-025K","ELEMENT_SET_NO":"999","OBJECT_TYPE":"PAYLOAD","MEAN_MOTION_DOT":"-0.00003016","APOAPSIS":"547.953","ECCENTRICITY":"0.00009140","PERIOD":"95.594","REF_FRAME":"TEME","TLE_LINE1":"1 45540U 20025K   23084.80954958 -.00003016  00000-0 -18388-3 0  9995","INCLINATION":"53.0524","RA_OF_ASC_NODE":"274.3917","GP_ID":"228868321"},{"RA_OF_ASC_NODE":"274.3745","INCLINATION":"53.0512","TLE_LINE1":"1 45541U 20025L   23084.81321622  .00019315  00000-0  13133-2 0  9992","GP_ID":"228869072","REF_FRAME":"TEME","APOAPSIS":"548.070","PERIOD":"95.594","ECCENTRICITY":"0.00010760","MEAN_MOTION_DOT":"0.00019315","OBJECT_TYPE":"PAYLOAD","OBJECT_ID":"2020-025L","ELEMENT_SET_NO":"999","ARG_OF_PERICENTER":"70.2444","EPOCH":"2023-03-25T19:31:01.881408","DECAY_DATE":null,"MEAN_MOTION_DDOT":"0.0000000000000","TLE_LINE2":"2 45541  53.0512 274.3745 0001076  70.2444 289.8661 15.06363664162328","LAUNCH_DATE":"2020-04-22","MEAN_ANOMALY":"289.8661","OBJECT_NAME":"STARLINK-1369","EPHEMERIS_TYPE":"0","NORAD_CAT_ID":"45541","SEMIMAJOR_AXIS":"6925.460","COUNTRY_CODE":"US","MEAN_MOTION":"15.06363664","CLASSIFICATION_TYPE":"U","PERIAPSIS":"546.580","FILE":"3871104","RCS_SIZE":"LARGE","CENTER_NAME":"EARTH","SITE":"AFETR","REV_AT_EPOCH":"16232","BSTAR":"0.00131330000000","MEAN_ELEMENT_THEORY":"SGP4","TIME_SYSTEM":"UTC"},{"TLE_LINE2":"2 45542  53.0514 274.2253 0000811  41.1176 318.9874 15.06357074162338","LAUNCH_DATE":"2020-04-22","MEAN_MOTION_DDOT":"0.0000000000000","EPOCH":"2023-03-25T20:18:47.736576","ARG_OF_PERICENTER":"41.1176","DECAY_DATE":null,"OBJECT_ID":"2020-025M","ELEMENT_SET_NO":"999","OBJECT_TYPE":"PAYLOAD","MEAN_MOTION_DOT":"0.00014058","APOAPSIS":"547.907","ECCENTRICITY":"0.00008110","PERIOD":"95.595","REF_FRAME":"TEME","TLE_LINE1":"1 45542U 20025M   23084.84638584  .00014058  00000-0  96189-3 0  9996","INCLINATION":"53.0514","RA_OF_ASC_NODE":"274.2253","GP_ID":"228867821","BSTAR":"0.00096189000000","TIME_SYSTEM":"UTC","MEAN_ELEMENT_THEORY":"SGP4","REV_AT_EPOCH":"16233","SITE":"AFETR","CENTER_NAME":"EARTH","MEAN_MOTION":"15.06357074","CLASSIFICATION_TYPE":"U","RCS_SIZE":"LARGE","FILE":"3871104","PERIAPSIS":"546.783","COUNTRY_CODE":"US","SEMIMAJOR_AXIS":"6925.480","NORAD_CAT_ID":"45542","OBJECT_NAME":"STARLINK-1371","MEAN_ANOMALY":"318.9874","EPHEMERIS_TYPE":"0"}];
